CCSDS_OMM_VERS = 2.0
CREATION_DATE  = 
ORIGINATOR     = 

OBJECT_NAME    = TRANSPORTER-15M
OBJECT_ID      = 2025-276M
CENTER_NAME    = EARTH
REF_FRAME      = TEME
TIME_SYSTEM    = UTC
MEAN_ELEMENT_THEORY = SGP/SGP4

EPOCH          = 2025-12-27T23:21:54.998208
MEAN_MOTION    = 15.17642676
ECCENTRICITY   = .00041241
INCLINATION    = 97.4374
RA_OF_ASC_NODE = 73.4555
ARG_OF_PERICENTER = 239.3772
MEAN_ANOMALY   = 120.7055

EPHEMERIS_TYPE = 0
CLASSIFICATION_TYPE = U
NORAD_CAT_ID   = 66677
ELEMENT_SET_NO = 999
REV_AT_EPOCH   = 443
BSTAR          = .11226262E-2
MEAN_MOTION_DOT = .22582E-3
MEAN_MOTION_DDOT = 0

CCSDS_OMM_VERS = 2.0
CREATION_DATE  = 
ORIGINATOR     = 

OBJECT_NAME    = TRANSPORTER-15N
OBJECT_ID      = 2025-276N
CENTER_NAME    = EARTH
REF_FRAME      = TEME
TIME_SYSTEM    = UTC
MEAN_ELEMENT_THEORY = SGP/SGP4

EPOCH          = 2025-12-28T15:25:09.103008
MEAN_MOTION    = 15.16880710
ECCENTRICITY   = .00095268
INCLINATION    = 97.4386
RA_OF_ASC_NODE = 74.0866
ARG_OF_PERICENTER = 196.8733
MEAN_ANOMALY   = 163.2185

EPHEMERIS_TYPE = 0
CLASSIFICATION_TYPE = U
NORAD_CAT_ID   = 66678
ELEMENT_SET_NO = 999
REV_AT_EPOCH   = 453
BSTAR          = -.21497294E-1
MEAN_MOTION_DOT = -.401353E-2
MEAN_MOTION_DDOT = 0

CCSDS_OMM_VERS = 2.0
CREATION_DATE  = 
ORIGINATOR     = 

OBJECT_NAME    = TRANSPORTER-15P
OBJECT_ID      = 2025-276P
CENTER_NAME    = EARTH
REF_FRAME      = TEME
TIME_SYSTEM    = UTC
MEAN_ELEMENT_THEORY = SGP/SGP4

EPOCH          = 2025-12-28T15:28:08.889312
MEAN_MOTION    = 15.16744978
ECCENTRICITY   = .00048644
INCLINATION    = 97.4359
RA_OF_ASC_NODE = 74.0824
ARG_OF_PERICENTER = 231.9609
MEAN_ANOMALY   = 128.1186

EPHEMERIS_TYPE = 0
CLASSIFICATION_TYPE = U
NORAD_CAT_ID   = 66679
ELEMENT_SET_NO = 999
REV_AT_EPOCH   = 453
BSTAR          = .24421395E-3
MEAN_MOTION_DOT = .4725E-4
MEAN_MOTION_DDOT = 0

CCSDS_OMM_VERS = 2.0
CREATION_DATE  = 
ORIGINATOR     = 

OBJECT_NAME    = TRANSPORTER-15Q
OBJECT_ID      = 2025-276Q
CENTER_NAME    = EARTH
REF_FRAME      = TEME
TIME_SYSTEM    = UTC
MEAN_ELEMENT_THEORY = SGP/SGP4

EPOCH          = 2025-12-28T10:41:45.038688
MEAN_MOTION    = 15.13634510
ECCENTRICITY   = .00034789
INCLINATION    = 97.4405
RA_OF_ASC_NODE = 73.9063
ARG_OF_PERICENTER = 45.8473
MEAN_ANOMALY   = 314.3044

EPHEMERIS_TYPE = 0
CLASSIFICATION_TYPE = U
NORAD_CAT_ID   = 66680
ELEMENT_SET_NO = 999
REV_AT_EPOCH   = 450
BSTAR          = -.68962199E-1
MEAN_MOTION_DOT = -.114171E-1
MEAN_MOTION_DDOT = 0

CCSDS_OMM_VERS = 2.0
CREATION_DATE  = 
ORIGINATOR     = 

OBJECT_NAME    = TRANSPORTER-15R
OBJECT_ID      = 2025-276R
CENTER_NAME    = EARTH
REF_FRAME      = TEME
TIME_SYSTEM    = UTC
MEAN_ELEMENT_THEORY = SGP/SGP4

EPOCH          = 2025-12-28T08:54:26.131392
MEAN_MOTION    = 15.17656643
ECCENTRICITY   = .00050358
INCLINATION    = 97.4328
RA_OF_ASC_NODE = 73.8248
ARG_OF_PERICENTER = 252.3316
MEAN_ANOMALY   = 107.7368

EPHEMERIS_TYPE = 0
CLASSIFICATION_TYPE = U
NORAD_CAT_ID   = 66681
ELEMENT_SET_NO = 999
REV_AT_EPOCH   = 449
BSTAR          = .1137631E-2
MEAN_MOTION_DOT = .22898E-3
MEAN_MOTION_DDOT = 0

CCSDS_OMM_VERS = 2.0
CREATION_DATE  = 
ORIGINATOR     = 

OBJECT_NAME    = TRANSPORTER-15S
OBJECT_ID      = 2025-276S
CENTER_NAME    = EARTH
REF_FRAME      = TEME
TIME_SYSTEM    = UTC
MEAN_ELEMENT_THEORY = SGP/SGP4

EPOCH          = 2025-12-28T15:39:15.738336
MEAN_MOTION    = 15.09149676
ECCENTRICITY   = .0034669
INCLINATION    = 97.4382
RA_OF_ASC_NODE = 74.0728
ARG_OF_PERICENTER = 73.6525
MEAN_ANOMALY   = 286.8512

EPHEMERIS_TYPE = 0
CLASSIFICATION_TYPE = U
NORAD_CAT_ID   = 66682
ELEMENT_SET_NO = 999
REV_AT_EPOCH   = 453
BSTAR          = .17581066E-1
MEAN_MOTION_DOT = .29404E-2
MEAN_MOTION_DDOT = 0

CCSDS_OMM_VERS = 2.0
CREATION_DATE  = 
ORIGINATOR     = 

OBJECT_NAME    = TRANSPORTER-15T
OBJECT_ID      = 2025-276T
CENTER_NAME    = EARTH
REF_FRAME      = TEME
TIME_SYSTEM    = UTC
MEAN_ELEMENT_THEORY = SGP/SGP4

EPOCH          = 2025-12-28T10:36:26.339328
MEAN_MOTION    = 15.17093967
ECCENTRICITY   = .00050237
INCLINATION    = 97.4442
RA_OF_ASC_NODE = 73.9254
ARG_OF_PERICENTER = 218.3054
MEAN_ANOMALY   = 141.7823

EPHEMERIS_TYPE = 0
CLASSIFICATION_TYPE = U
NORAD_CAT_ID   = 66683
ELEMENT_SET_NO = 999
REV_AT_EPOCH   = 450
BSTAR          = .61270186E-3
MEAN_MOTION_DOT = .12087E-3
MEAN_MOTION_DDOT = 0

CCSDS_OMM_VERS = 2.0
CREATION_DATE  = 
ORIGINATOR     = 

OBJECT_NAME    = TRANSPORTER-15U
OBJECT_ID      = 2025-276U
CENTER_NAME    = EARTH
REF_FRAME      = TEME
TIME_SYSTEM    = UTC
MEAN_ELEMENT_THEORY = SGP/SGP4

EPOCH          = 2025-12-28T15:15:00.808992
MEAN_MOTION    = 15.17476388
ECCENTRICITY   = .00048318
INCLINATION    = 97.4467
RA_OF_ASC_NODE = 74.1350
ARG_OF_PERICENTER = 216.4622
MEAN_ANOMALY   = 143.6283

EPHEMERIS_TYPE = 0
CLASSIFICATION_TYPE = U
NORAD_CAT_ID   = 66684
ELEMENT_SET_NO = 999
REV_AT_EPOCH   = 453
BSTAR          = .80306558E-3
MEAN_MOTION_DOT = .16045E-3
MEAN_MOTION_DDOT = 0

CCSDS_OMM_VERS = 2.0
CREATION_DATE  = 
ORIGINATOR     = 

OBJECT_NAME    = TRANSPORTER-15V
OBJECT_ID      = 2025-276V
CENTER_NAME    = EARTH
REF_FRAME      = TEME
TIME_SYSTEM    = UTC
MEAN_ELEMENT_THEORY = SGP/SGP4

EPOCH          = 2025-12-27T02:47:35.884320
MEAN_MOTION    = 15.21953501
ECCENTRICITY   = .00085593
INCLINATION    = 97.4444
RA_OF_ASC_NODE = 72.6316
ARG_OF_PERICENTER = 36.5472
MEAN_ANOMALY   = 323.6347

EPHEMERIS_TYPE = 0
CLASSIFICATION_TYPE = U
NORAD_CAT_ID   = 66685
ELEMENT_SET_NO = 999
REV_AT_EPOCH   = 430
BSTAR          = .15371794E+0
MEAN_MOTION_DOT = .3971994E-1
MEAN_MOTION_DDOT = 0

CCSDS_OMM_VERS = 2.0
CREATION_DATE  = 
ORIGINATOR     = 

OBJECT_NAME    = TRANSPORTER-15W
OBJECT_ID      = 2025-276W
CENTER_NAME    = EARTH
REF_FRAME      = TEME
TIME_SYSTEM    = UTC
MEAN_ELEMENT_THEORY = SGP/SGP4

EPOCH          = 2025-12-28T12:10:17.948352
MEAN_MOTION    = 15.17092590
ECCENTRICITY   = .00045242
INCLINATION    = 97.4448
RA_OF_ASC_NODE = 73.9932
ARG_OF_PERICENTER = 218.9279
MEAN_ANOMALY   = 141.1629

EPHEMERIS_TYPE = 0
CLASSIFICATION_TYPE = U
NORAD_CAT_ID   = 66686
ELEMENT_SET_NO = 999
REV_AT_EPOCH   = 451
BSTAR          = .65074289E-3
MEAN_MOTION_DOT = .12841E-3
MEAN_MOTION_DDOT = 0

CCSDS_OMM_VERS = 2.0
CREATION_DATE  = 
ORIGINATOR     = 

OBJECT_NAME    = TRANSPORTER-15X
OBJECT_ID      = 2025-276X
CENTER_NAME    = EARTH
REF_FRAME      = TEME
TIME_SYSTEM    = UTC
MEAN_ELEMENT_THEORY = SGP/SGP4

EPOCH          = 2025-12-28T15:29:27.831264
MEAN_MOTION    = 15.16864013
ECCENTRICITY   = .00079343
INCLINATION    = 97.4385
RA_OF_ASC_NODE = 74.0879
ARG_OF_PERICENTER = 34.7268
MEAN_ANOMALY   = 325.4482

EPHEMERIS_TYPE = 0
CLASSIFICATION_TYPE = U
NORAD_CAT_ID   = 66687
ELEMENT_SET_NO = 999
REV_AT_EPOCH   = 453
BSTAR          = .78942125E-3
MEAN_MOTION_DOT = .15504E-3
MEAN_MOTION_DDOT = 0

CCSDS_OMM_VERS = 2.0
CREATION_DATE  = 
ORIGINATOR     = 

OBJECT_NAME    = TRANSPORTER-15Y
OBJECT_ID      = 2025-276Y
CENTER_NAME    = EARTH
REF_FRAME      = TEME
TIME_SYSTEM    = UTC
MEAN_ELEMENT_THEORY = SGP/SGP4

EPOCH          = 2025-12-28T15:18:33.588000
MEAN_MOTION    = 15.17165868
ECCENTRICITY   = .00040394
INCLINATION    = 97.4425
RA_OF_ASC_NODE = 74.1163
ARG_OF_PERICENTER = 221.6671
MEAN_ANOMALY   = 138.4256

EPHEMERIS_TYPE = 0
CLASSIFICATION_TYPE = U
NORAD_CAT_ID   = 66688
ELEMENT_SET_NO = 999
REV_AT_EPOCH   = 453
BSTAR          = .67303667E-3
MEAN_MOTION_DOT = .13312E-3
MEAN_MOTION_DDOT = 0

