TRANSPORTER-15M         
1 66677U 25276M   25361.97355322  .00022582  00000+0  11226-2 0  9999
2 66677  97.4374  73.4555 0004124 239.3772 120.7055 15.17642676  4437
TRANSPORTER-15N         
1 66678U 25276N   25362.64246647 -.00401353  00000+0 -21497-1 0  9993
2 66678  97.4386  74.0866 0009526 196.8733 163.2185 15.16880710  4537
TRANSPORTER-15P         
1 66679U 25276P   25362.64454733  .00004725  00000+0  24421-3 0  9993
2 66679  97.4359  74.0824 0004864 231.9609 128.1186 15.16744978  4531
TRANSPORTER-15Q         
1 66680U 25276Q   25362.44566017 -.01141710  00000+0 -68962-1 0  9997
2 66680  97.4405  73.9063 0003478  45.8473 314.3044 15.13634510  4505
TRANSPORTER-15R         
1 66681U 25276R   25362.37113578  .00022898  00000+0  11376-2 0  9990
2 66681  97.4328  73.8248 0005035 252.3316 107.7368 15.17656643  4492
TRANSPORTER-15S         
1 66682U 25276S   25362.65226549  .00294040  00000+0  17581-1 0  9998
2 66682  97.4382  74.0728 0034669  73.6525 286.8512 15.09149676  4539
TRANSPORTER-15T         
1 66683U 25276T   25362.44197152  .00012087  00000+0  61270-3 0  9998
2 66683  97.4442  73.9254 0005023 218.3054 141.7823 15.17093967  4507
TRANSPORTER-15U         
1 66684U 25276U   25362.63542603  .00016045  00000+0  80307-3 0  9995
2 66684  97.4467  74.1350 0004831 216.4622 143.6283 15.17476388  4537
TRANSPORTER-15V         
1 66685U 25276V   25361.11638755  .03971994  00000+0  15372+0 0  9994
2 66685  97.4444  72.6316 0008559  36.5472 323.6347 15.21953501  4301
TRANSPORTER-15W         
1 66686U 25276W   25362.50715218  .00012841  00000+0  65074-3 0  9991
2 66686  97.4448  73.9932 0004524 218.9279 141.1629 15.17092590  4519
TRANSPORTER-15X         
1 66687U 25276X   25362.64546101  .00015504  00000+0  78942-3 0  9997
2 66687  97.4385  74.0879 0007934  34.7268 325.4482 15.16864013  4534
TRANSPORTER-15Y         
1 66688U 25276Y   25362.63788875  .00013312  00000+0  67304-3 0  9998
2 66688  97.4425  74.1163 0004039 221.6671 138.4256 15.17165868  4539
